CCSDS_OEM_VERS = 1.0
CREATION_DATE  = 2017-05-11T11:59:53
ORIGINATOR     = GMAT USER

META_START
OBJECT_NAME          = MOPSSat_alt_35785_km_RAAN_270_097
OBJECT_ID            = SatId
CENTER_NAME          = Earth
REF_FRAME            = EME2000
TIME_SYSTEM          = UTC
START_TIME           = 2017-01-01T00:00:00.000
USEABLE_START_TIME   = 2017-01-01T00:00:00.000
USEABLE_STOP_TIME    = 2017-01-02T00:00:00.000
STOP_TIME            = 2017-01-02T00:00:00.000
INTERPOLATION        = Lagrange
INTERPOLATION_DEGREE = 7 
META_STOP


                                                                                   

2017-01-01T22:55:00.000  -1.223176876541822e+04  -3.611795402029865e+04   1.526752809072079e+00   3.235688013808400e+00  -9.911420001778918e-01  -6.574285248097915e-05
2017-01-01T22:55:10.000  -1.219940749199543e+04  -3.612785245661279e+04   1.526094737707345e+00   3.236566242148869e+00  -9.885450943614471e-01  -6.587141737578234e-05
2017-01-01T22:55:20.000  -1.216703744784272e+04  -3.613772491922356e+04   1.525435380760012e+00   3.237442211859135e+00  -9.859472758629497e-01  -6.599997004240339e-05
2017-01-01T22:55:30.000  -1.213465865555234e+04  -3.614757139901585e+04   1.524774738353024e+00   3.238315921776105e+00  -9.833485469492266e-01  -6.612851035190866e-05
2017-01-01T22:55:40.000  -1.210227113769231e+04  -3.615739188690839e+04   1.524112810609894e+00   3.239187370740395e+00  -9.807489098860824e-01  -6.625703817548297e-05
2017-01-01T22:55:50.000  -1.206987491672879e+04  -3.616718637387601e+04   1.523449597653068e+00   3.240056557598334e+00  -9.781483669320609e-01  -6.638555338475505e-05
2017-01-01T22:56:00.000  -1.203747001514215e+04  -3.617695485091540e+04   1.522785099606335e+00   3.240923481198903e+00  -9.755469203477645e-01  -6.651405585132044e-05
2017-01-01T22:56:10.000  -1.200505645543872e+04  -3.618669730904176e+04   1.522119316595071e+00   3.241788140393456e+00  -9.729445723967953e-01  -6.664254544670099e-05
2017-01-01T22:56:20.000  -1.197263426018245e+04  -3.619641373927745e+04   1.521452248746827e+00   3.242650534034710e+00  -9.703413253482867e-01  -6.677102204220458e-05
2017-01-01T22:56:30.000  -1.194020345202150e+04  -3.620610413264635e+04   1.520783896191958e+00   3.243510660976237e+00  -9.677371814790467e-01  -6.689948550883456e-05
2017-01-01T22:56:40.000  -1.190776405359254e+04  -3.621576848020139e+04   1.520114259061615e+00   3.244368520074927e+00  -9.651321430658703e-01  -6.702793571766475e-05
2017-01-01T22:56:50.000  -1.187531608794901e+04  -3.622540677289990e+04   1.519443337496700e+00   3.245224110179907e+00  -9.625262124199440e-01  -6.715637253815291e-05
2017-01-01T22:57:00.000  -1.184285957804228e+04  -3.623501900175542e+04   1.518771131637043e+00   3.246077430146023e+00  -9.599193918451654e-01  -6.728479584018713e-05
2017-01-01T22:57:10.000  -1.181039454691450e+04  -3.624460515778088e+04   1.518097641625419e+00   3.246928478828811e+00  -9.573116836536244e-01  -6.741320549332282e-05
2017-01-01T22:57:20.000  -1.177792101695181e+04  -3.625416523220957e+04   1.517422867592061e+00   3.247777255104102e+00  -9.547030901056278e-01  -6.754160136974219e-05
2017-01-01T22:57:30.000  -1.174543901062912e+04  -3.626369921627457e+04   1.516746809670094e+00   3.248623757848442e+00  -9.520936134695095e-01  -6.766998334130097e-05
2017-01-01T22:57:40.000  -1.171294855034142e+04  -3.627320710125924e+04   1.516069467992061e+00   3.249467985943588e+00  -9.494832560080879e-01  -6.779835128020104e-05
2017-01-01T22:57:50.000  -1.168044965882342e+04  -3.628268887837047e+04   1.515390842698517e+00   3.250309938265252e+00  -9.468720200123500e-01  -6.792670505730873e-05
2017-01-01T22:58:00.000  -1.164794235883830e+04  -3.629214453883388e+04   1.514710933931700e+00   3.251149613691548e+00  -9.442599077764690e-01  -6.805504454341073e-05
2017-01-01T22:58:10.000  -1.161542667317722e+04  -3.630157407389233e+04   1.514029741835462e+00   3.251987011102873e+00  -9.416469215977550e-01  -6.818336960920546e-05
2017-01-01T22:58:20.000  -1.158290262497304e+04  -3.631097747471880e+04   1.513347266561983e+00   3.252822129374155e+00  -9.390330638018912e-01  -6.831168012409863e-05
2017-01-01T22:58:30.000  -1.155037023727813e+04  -3.632035473253514e+04   1.512663508262793e+00   3.253654967385421e+00  -9.364183367089752e-01  -6.843997595783587e-05
2017-01-01T22:58:40.000  -1.151782953323051e+04  -3.632970583856491e+04   1.511978467092288e+00   3.254485524017594e+00  -9.338027426468781e-01  -6.856825697985890e-05
2017-01-01T22:58:50.000  -1.148528053531956e+04  -3.633903078424463e+04   1.511292143192279e+00   3.255313798171263e+00  -9.311862838922201e-01  -6.869652306216966e-05
2017-01-01T22:59:00.000  -1.145272326612016e+04  -3.634832956101224e+04   1.510604536707433e+00   3.256139788747902e+00  -9.285689627293772e-01  -6.882477407646682e-05
2017-01-01T22:59:10.000  -1.142015774812683e+04  -3.635760216035546e+04   1.509915647781797e+00   3.256963494654160e+00  -9.259507814371501e-01  -6.895300989478936e-05
2017-01-01T22:59:20.000  -1.138758400417432e+04  -3.636684857368812e+04   1.509225476567558e+00   3.257784914790889e+00  -9.233317423225516e-01  -6.908123038788531e-05
2017-01-01T22:59:30.000  -1.135500205712568e+04  -3.637606879244303e+04   1.508534023218588e+00   3.258604048061377e+00  -9.207118476957485e-01  -6.920943542641605e-05
2017-01-01T22:59:40.000  -1.132241192987167e+04  -3.638526280807054e+04   1.507841287890379e+00   3.259420893371242e+00  -9.180910998700103e-01  -6.933762488096677e-05
2017-01-01T22:59:50.000  -1.128981364564528e+04  -3.639443061195362e+04   1.507147270746874e+00   3.260235449620869e+00  -9.154695011870178e-01  -6.946579862078502e-05
2017-01-01T23:00:00.000  -1.125720722759854e+04  -3.640357219552366e+04   1.506451971951332e+00   3.261047715715719e+00  -9.128470539828080e-01  -6.959395651547068e-05
2017-01-01T23:00:10.000  -1.122459269896903e+04  -3.641268755021451e+04   1.505755391669907e+00   3.261857690562223e+00  -9.102237606011719e-01  -6.972209843431087e-05
2017-01-01T23:00:20.000  -1.119197008234395e+04  -3.642177666766823e+04   1.505057530055935e+00   3.262665373086095e+00  -9.075996233344537e-01  -6.985022424920386e-05
2017-01-01T23:00:30.000  -1.115933940039592e+04  -3.643083953952908e+04   1.504358387265632e+00   3.263470762214010e+00  -9.049746444827339e-01  -6.997833383173557e-05
2017-01-01T23:00:40.000  -1.112670067571672e+04  -3.643987615749059e+04   1.503657963454571e+00   3.264273856877792e+00  -9.023488263404581e-01  -7.010642705384562e-05
2017-01-01T23:00:50.000  -1.109405393123892e+04  -3.644888651317493e+04   1.502956258786574e+00   3.265074656003703e+00  -8.997221712303254e-01  -7.023450378613562e-05
2017-01-01T23:01:00.000  -1.106139918992307e+04  -3.645787059822351e+04   1.502253273427163e+00   3.265873158520490e+00  -8.970946814781536e-01  -7.036256389913400e-05
2017-01-01T23:01:10.000  -1.102873647475733e+04  -3.646682840429559e+04   1.501549007543482e+00   3.266669363359262e+00  -8.944663594128303e-01  -7.049060726328433e-05
2017-01-01T23:01:20.000  -1.099606580907246e+04  -3.647575992298561e+04   1.500843461311246e+00   3.267463269446140e+00  -8.918372073916900e-01  -7.061863374774614e-05
2017-01-01T23:01:30.000  -1.096338721611787e+04  -3.648466514593590e+04   1.500136634905456e+00   3.268254875712291e+00  -8.892072277663658e-01  -7.074664322202209e-05
2017-01-01T23:01:40.000  -1.093070071923157e+04  -3.649354406479114e+04   1.499428528504102e+00   3.269044181089864e+00  -8.865764228964769e-01  -7.087463555530301e-05
2017-01-01T23:01:50.000  -1.089800634109028e+04  -3.650239667140195e+04   1.498719142271922e+00   3.269831184530104e+00  -8.839447950892638e-01  -7.100261061937937e-05
2017-01-01T23:02:00.000  -1.086530410446111e+04  -3.651122295762052e+04   1.498008476376677e+00   3.270615884985184e+00  -8.813123466600923e-01  -7.113056828572197e-05
2017-01-01T23:02:10.000  -1.083259403200757e+04  -3.652002291535371e+04   1.497296530984955e+00   3.271398281412916e+00  -8.786790799168344e-01  -7.125850842623533e-05
2017-01-01T23:02:20.000  -1.079987614681099e+04  -3.652879653641946e+04   1.496583306273406e+00   3.272178372764007e+00  -8.760449972018217e-01  -7.138643091122857e-05
2017-01-01T23:02:30.000  -1.076715047194029e+04  -3.653754381266576e+04   1.495868802419492e+00   3.272956157992621e+00  -8.734101008572316e-01  -7.151433561108973e-05
2017-01-01T23:02:40.000  -1.073441703054797e+04  -3.654626473594403e+04   1.495153019603553e+00   3.273731636054022e+00  -8.707743932328058e-01  -7.164222239591173e-05
2017-01-01T23:02:50.000  -1.070167584584449e+04  -3.655495929811802e+04   1.494435958008326e+00   3.274504805905364e+00  -8.681378766837990e-01  -7.177009113559676e-05
2017-01-01T23:03:00.000  -1.066892694106516e+04  -3.656362749107102e+04   1.493717617818154e+00   3.275275666506329e+00  -8.655005535683016e-01  -7.189794169997944e-05
2017-01-01T23:03:10.000  -1.063617033945837e+04  -3.657226930670908e+04   1.492997999218741e+00   3.276044216819428e+00  -8.628624262462885e-01  -7.202577395887683e-05
2017-01-01T23:03:20.000  -1.060340606416869e+04  -3.658088473699292e+04   1.492277102394619e+00   3.276810455812825e+00  -8.602234970702091e-01  -7.215358778252866e-05
2017-01-01T23:03:30.000  -1.057063413831457e+04  -3.658947377391616e+04   1.491554927530806e+00   3.277574382458420e+00  -8.575837683912378e-01  -7.228138304131178e-05
2017-01-01T23:03:40.000  -1.053785458498842e+04  -3.659803640950566e+04   1.490831474812829e+00   3.278335995731862e+00  -8.549432425592777e-01  -7.240915960573243e-05
2017-01-01T23:03:50.000  -1.050506742717815e+04  -3.660657263584089e+04   1.490106744424938e+00   3.279095294614287e+00  -8.523019219166287e-01  -7.253691734675844e-05
2017-01-01T23:04:00.000  -1.047227268788454e+04  -3.661508244502398e+04   1.489380736552737e+00   3.279852278089663e+00  -8.496598088074506e-01  -7.266465613533441e-05
